NORAD_CAT_ID,OBJECT_NAME,OBJECT_TYPE,EPOCH,MEAN_MOTION,ECCENTRICITY,INCLINATION,RA_OF_ASC_NODE,ARG_OF_PERICENTER,MEAN_ANOMALY,BSTAR,MEAN_MOTION_DOT,MEAN_MOTION_DDOT,TLE_LINE0,TLE_LINE1,TLE_LINE2,SEMIMAJOR_AXIS,PERIOD,APOGEE,PERIGEE,DECAYED
51780.0,STARLINK-3617,PAYLOAD,2024-01-05 02:14:18,15.08849884,0.0001364,53.2176,306.192,94.4026,265.7122,-3.9902e-05,-9.23e-06,0.0,0 STARLINK-3617,1 51780U 22017N   24005.09326436 -.00000923  00000-0 -39902-4 0  9990,2 51780  53.2176 306.1920 0001364  94.4026 265.7122 15.08849884102460,6917.85,95.437,540.659,538.772,0.0
51780.0,STARLINK-3617,PAYLOAD,2024-01-05 19:43:32,15.08839922,0.0001395,53.217,302.9227,98.7865,261.3285,3.0221e-05,1.93e-06,0.0,0 STARLINK-3617,1 51780U 22017N   24005.82190860  .00000193  00000-0  30221-4 0  9993,2 51780  53.2170 302.9227 0001395  98.7865 261.3285 15.08839922104264,6917.881,95.438,540.711,538.781,0.0
51780.0,STARLINK-3617,PAYLOAD,2024-01-06 05:15:51,15.08843209,0.000139,53.2167,301.1376,105.3995,254.7151,7.9454e-05,9.77e-06,0.0,0 STARLINK-3617,1 51780U 22017N   24006.21934457  .00000977  00000-0  79454-4 0  9996,2 51780  53.2167 301.1376 0001390 105.3995 254.7151 15.08843209102630,6917.871,95.437,540.697,538.774,0.0
51780.0,STARLINK-3617,PAYLOAD,2024-01-06 22:45:06,15.08842765,0.0001574,53.2168,297.8664,107.2872,252.8292,-4.0404e-06,-3.52e-06,0.0,0 STARLINK-3617,1 51780U 22017N   24006.94798793 -.00000352  00000-0 -40404-5 0  9990,2 51780  53.2168 297.8664 0001574 107.2872 252.8292 15.08842765102744,6917.872,95.437,540.826,538.648,0.0
51780.0,STARLINK-3617,PAYLOAD,2024-01-07 00:20:29,15.0884206,0.0001571,53.2177,297.5693,106.166,253.9505,3.124e-05,2.09e-06,0.0,0 STARLINK-3617,1 51780U 22017N   24007.01422709  .00000209  00000-0  31240-4 0  9996,2 51780  53.2177 297.5693 0001571 106.1660 253.9505 15.08842060104449,6917.874,95.437,540.826,538.652,0.0
51780.0,STARLINK-3617,PAYLOAD,2024-01-07 19:25:07,15.08837122,0.0001387,53.2193,294.0055,75.5618,284.5528,6.2282e-05,7.03e-06,0.0,0 STARLINK-3617,1 51780U 22017N   24007.80911252  .00000703  00000-0  62282-4 0  9998,2 51780  53.2193 294.0055 0001387  75.5618 284.5528 15.08837122104569,6917.889,95.438,540.714,538.795,0.0
51780.0,STARLINK-3617,PAYLOAD,2024-01-07 22:35:53,15.08837993,0.0001598,53.218,293.4061,103.3879,256.7291,1.7932e-05,-3e-08,0.0,0 STARLINK-3617,1 51780U 22017N   24007.94159194 -.00000003  00000-0  17932-4 0  9998,2 51780  53.2180 293.4061 0001598 103.3879 256.7291 15.08837993102896,6917.887,95.438,540.857,538.646,0.0
51780.0,STARLINK-3617,PAYLOAD,2024-01-08 04:57:25,15.08843849,0.0001696,53.2179,292.2155,107.5469,252.5708,-1.1968e-05,-4.79e-06,0.0,0 STARLINK-3617,1 51780U 22017N   24008.20654863 -.00000479  00000-0 -11968-4 0  9992,2 51780  53.2179 292.2155 0001696 107.5469 252.5708 15.08843849104622,6917.869,95.437,540.907,538.56,0.0
51780.0,STARLINK-3617,PAYLOAD,2024-01-08 22:26:42,15.08819446,0.0002052,53.2173,288.9358,127.8329,232.2849,-0.00019242,-3.348e-05,0.0,0 STARLINK-3617,1 51780U 22017N   24008.93521746 -.00003348  00000-0 -19242-3 0  9995,2 51780  53.2173 288.9358 0002052 127.8329 232.2849 15.08819446103042,6917.943,95.439,541.228,538.389,0.0
51780.0,STARLINK-3617,PAYLOAD,2024-01-09 01:37:27,15.08840042,0.0001386,53.2178,288.3502,97.4683,262.6467,8.3462e-05,1.041e-05,0.0,0 STARLINK-3617,1 51780U 22017N   24009.06768226  .00001041  00000-0  83462-4 0  9998,2 51780  53.2178 288.3502 0001386  97.4683 262.6467 15.08840042104754,6917.88,95.438,540.704,538.786,0.0
51780.0,STARLINK-3617,PAYLOAD,2024-01-09 22:17:27,15.0884863,0.0001356,53.2176,284.4869,72.5457,287.5684,0.00021196,3.088e-05,0.0,0 STARLINK-3617,1 51780U 22017N   24009.92879521  .00003088  00000-0  21196-3 0  9992,2 51780  53.2176 284.4869 0001356  72.5457 287.5684 15.08848630103190,6917.854,95.437,540.657,538.781,0.0
51780.0,STARLINK-3617,PAYLOAD,2024-01-10 01:28:13,15.08856741,0.0001344,53.2174,283.8904,92.0381,268.0765,0.00025981,3.851e-05,0.0,0 STARLINK-3617,1 51780U 22017N   24010.06126815  .00003851  00000-0  25981-3 0  9994,2 51780  53.2174 283.8904 0001344  92.0381 268.0765 15.08856741104907,6917.829,95.436,540.624,538.764,0.0
51780.0,STARLINK-3617,PAYLOAD,2024-01-10 17:22:06,15.08834729,0.0001572,53.218,280.92,68.0213,292.0946,0.00034426,5.194e-05,0.0,0 STARLINK-3617,1 51780U 22017N   24010.72368173  .00005194  00000-0  34426-3 0  9998,2 51780  53.2180 280.9200 0001572  68.0213 292.0946 15.08834729105003,6917.897,95.438,540.849,538.674,0.0
51780.0,STARLINK-3617,PAYLOAD,2024-01-11 02:54:24,15.08852882,0.0001279,53.2179,279.1318,87.9112,272.2026,6.4946e-05,7.46e-06,0.0,0 STARLINK-3617,1 51780U 22017N   24011.12111749  .00000746  00000-0  64946-4 0  9997,2 51780  53.2179 279.1318 0001279  87.9112 272.2026 15.08852882105068,6917.841,95.437,540.591,538.821,0.0
51780.0,STARLINK-3617,PAYLOAD,2024-01-11 21:59:02,15.08853723,0.000123,53.2177,275.5624,108.577,251.5356,-0.00012984,-2.354e-05,0.0,0 STARLINK-3617,1 51780U 22017N   24011.91599675 -.00002354  00000-0 -12984-3 0  9995,2 51780  53.2177 275.5624 0001230 108.5770 251.5356 15.08853723103499,6917.838,95.437,540.554,538.853,0.0
51780.0,STARLINK-3617,PAYLOAD,2024-01-12 01:09:47,15.0885831,0.0001442,53.2172,274.9697,79.6696,280.4459,-1.0117e-05,-4.49e-06,0.0,0 STARLINK-3617,1 51780U 22017N   24012.04847108 -.00000449  00000-0 -10117-4 0  9997,2 51780  53.2172 274.9697 0001442  79.6696 280.4459 15.08858310103512,6917.824,95.436,540.687,538.692,0.0
51780.0,STARLINK-3617,PAYLOAD,2024-01-12 21:49:49,15.08837774,0.0001499,53.2173,271.1049,82.8446,277.2717,3.542e-05,2.76e-06,0.0,0 STARLINK-3617,1 51780U 22017N   24012.90960035  .00000276  00000-0  35420-4 0  9997,2 51780  53.2173 271.1049 0001499  82.8446 277.2717 15.08837774103640,6917.887,95.438,540.789,538.715,0.0
51780.0,STARLINK-3617,PAYLOAD,2024-01-12 23:25:12,15.08838214,0.0001701,53.2179,270.807,77.8331,282.2852,7.2682e-05,8.69e-06,0.0,0 STARLINK-3617,1 51780U 22017N   24012.97584144  .00000869  00000-0  72682-4 0  9996,2 51780  53.2179 270.8070 0001701  77.8331 282.2852 15.08838214105344,6917.886,95.438,540.928,538.574,0.0
51780.0,STARLINK-3617,PAYLOAD,2024-01-13 23:15:59,15.0884542,0.0001511,53.2167,266.3443,90.3982,269.7183,7.9104e-05,9.71e-06,0.0,0 STARLINK-3617,1 51780U 22017N   24013.96943826  .00000971  00000-0  79104-4 0  9992,2 51780  53.2167 266.3443 0001511  90.3982 269.7183 15.08845420103809,6917.864,95.437,540.774,538.684,0.0
51780.0,STARLINK-3617,PAYLOAD,2024-01-14 19:55:59,15.08848633,0.0001624,53.2167,262.4806,105.4838,254.6333,0.00021736,3.174e-05,0.0,0 STARLINK-3617,1 51780U 22017N   24014.83055495  .00003174  00000-0  21736-3 0  9990,2 51780  53.2167 262.4806 0001624 105.4838 254.6333 15.08848633105623,6917.854,95.437,540.842,538.596,0.0
51780.0,STARLINK-3617,PAYLOAD,2024-01-14 21:31:23,15.08850028,0.0001631,53.2168,262.1834,105.0224,255.0949,0.00023322,3.427e-05,0.0,0 STARLINK-3617,1 51780U 22017N   24014.89679419  .00003427  00000-0  23322-3 0  9998,2 51780  53.2168 262.1834 0001631 105.0224 255.0949 15.08850028103947,6917.85,95.437,540.843,538.586,0.0
51780.0,STARLINK-3617,PAYLOAD,2024-01-15 02:17:32,15.08855203,0.000163,53.2162,261.2883,111.486,248.6306,0.00029633,4.433e-05,0.0,0 STARLINK-3617,1 51780U 22017N   24015.09550991  .00004433  00000-0  29633-3 0  9993,2 51780  53.2162 261.2883 0001630 111.4860 248.6306 15.08855203103979,6917.834,95.437,540.827,538.571,0.0
51780.0,STARLINK-3617,PAYLOAD,2024-01-15 19:46:46,15.08843572,0.0001632,53.2152,258.0115,115.6203,244.4958,4.1094e-07,-2.82e-06,0.0,0 STARLINK-3617,1 51780U 22017N   24015.82415351 -.00000282  00000-0  41094-6 0  9991,2 51780  53.2152 258.0115 0001632 115.6203 244.4958 15.08843572104085,6917.869,95.437,540.863,538.605,0.0
51780.0,STARLINK-3617,PAYLOAD,2024-01-16 02:08:19,15.08842685,0.0001595,53.2162,256.8279,110.047,250.0693,4.07e-05,3.6e-06,0.0,0 STARLINK-3617,1 51780U 22017N   24016.08911471  .00000360  00000-0  40700-4 0  9991,2 51780  53.2162 256.8279 0001595 110.0470 250.0693 15.08842685105811,6917.872,95.437,540.841,538.634,0.0
51780.0,STARLINK-3617,PAYLOAD,2024-01-16 21:12:57,15.08835958,0.0001694,53.2157,253.2579,120.5773,239.5386,-0.00011408,-2.103e-05,0.0,0 STARLINK-3617,1 51780U 22017N   24016.88399838 -.00002103  00000-0 -11408-3 0  9997,2 51780  53.2157 253.2579 0001694 120.5773 239.5386 15.08835958104243,6917.893,95.438,540.93,538.586,0.0
51780.0,STARLINK-3617,PAYLOAD,2024-01-16 22:48:20,15.0883569,0.0001454,53.2157,252.9617,108.0359,252.0792,-0.00010117,-1.898e-05,0.0,0 STARLINK-3617,1 51780U 22017N   24016.95023952 -.00001898  00000-0 -10117-3 0  9992,2 51780  53.2157 252.9617 0001454 108.0359 252.0792 15.08835690105949,6917.894,95.438,540.764,538.753,0.0
51780.0,STARLINK-3617,PAYLOAD,2024-01-17 22:39:08,15.08815196,0.0001525,53.2169,248.5009,103.3352,256.781,0.00045163,6.902e-05,0.0,0 STARLINK-3617,1 51780U 22017N   24017.94385112  .00006902  00000-0  45163-3 0  9999,2 51780  53.2169 248.5009 0001525 103.3352 256.7810 15.08815196104409,6917.956,95.439,540.876,538.766,0.0
51780.0,STARLINK-3617,PAYLOAD,2024-01-18 19:19:09,15.08836998,0.0001341,53.2167,244.6385,96.0572,264.0573,0.00014509,2.022e-05,0.0,0 STARLINK-3617,1 51780U 22017N   24018.80496840  .00002022  00000-0  14509-3 0  9995,2 51780  53.2167 244.6385 0001341  96.0572 264.0573 15.08836998106222,6917.89,95.438,540.682,538.827,0.0
51780.0,STARLINK-3617,PAYLOAD,2024-01-18 22:29:55,15.08840077,0.0001365,53.2158,244.0425,84.6763,275.4385,0.00016599,2.355e-05,0.0,0 STARLINK-3617,1 51780U 22017N   24018.93744677  .00002355  00000-0  16599-3 0  9993,2 51780  53.2158 244.0425 0001365  84.6763 275.4385 15.08840077104556,6917.88,95.438,540.689,538.801,0.0
51780.0,STARLINK-3617,PAYLOAD,2024-01-19 00:05:18,15.08841015,0.0001365,53.2158,243.745,86.2998,273.815,0.00017709,2.532e-05,0.0,0 STARLINK-3617,1 51780U 22017N   24019.00368638  .00002532  00000-0  17709-3 0  9992,2 51780  53.2158 243.7450 0001365  86.2998 273.8150 15.08841015104564,6917.877,95.437,540.687,538.798,0.0
